{
  "norad_id": 58859,
  "name": "STARLINK-31197",
  "history": [
    {
      "epoch": "2026-04-14T21:04:50.010240Z",
      "apogee_km": 483.7289575349205,
      "perigee_km": 482.3978846532282,
      "latitude_deg": 1.86579223736465e-05,
      "longitude_deg": -114.41881620917185,
      "height_km": 482.7976003739592,
      "semi_major_axis_km": 6861.200421094074,
      "eccentricity": 9.7e-05,
      "inclination_deg": 43.0043,
      "raan_deg": 44.838,
      "arg_perigee_deg": 273.673,
      "mean_anomaly_deg": 86.4011,
      "mean_motion_rev_day": 15.27575216
    },
    {
      "epoch": "2026-04-15T12:46:23.828736Z",
      "apogee_km": 483.67219997038774,
      "perigee_km": 482.4481623932652,
      "latitude_deg": -3.284412521675908e-05,
      "longitude_deg": 5.853642312130671,
      "height_km": 482.7495353609739,
      "semi_major_axis_km": 6861.197181181827,
      "eccentricity": 8.92e-05,
      "inclination_deg": 43.0044,
      "raan_deg": 41.1459,
      "arg_perigee_deg": 278.211,
      "mean_anomaly_deg": 81.864,
      "mean_motion_rev_day": 15.27576298
    },
    {
      "epoch": "2026-04-16T12:18:44.553888Z",
      "apogee_km": 483.6646369840655,
      "perigee_km": 482.45843828114994,
      "latitude_deg": 6.404537274735174e-06,
      "longitude_deg": 6.26181517985059,
      "height_km": 482.75451668321006,
      "semi_major_axis_km": 6861.198537632607,
      "eccentricity": 8.79e-05,
      "inclination_deg": 43.0049,
      "raan_deg": 35.6071,
      "arg_perigee_deg": 277.9892,
      "mean_anomaly_deg": 82.086,
      "mean_motion_rev_day": 15.27575845
    },
    {
      "epoch": "2026-04-17T11:51:05.487264Z",
      "apogee_km": 483.6591427718495,
      "perigee_km": 482.47517338233047,
      "latitude_deg": 3.300618532625125e-05,
      "longitude_deg": 6.668904171536917,
      "height_km": 482.73374794530946,
      "semi_major_axis_km": 6861.204158077089,
      "eccentricity": 8.628e-05,
      "inclination_deg": 43.0055,
      "raan_deg": 30.0681,
      "arg_perigee_deg": 280.7342,
      "mean_anomaly_deg": 79.3413,
      "mean_motion_rev_day": 15.27573968
    },
    {
      "epoch": "2026-04-18T11:23:26.280672Z",
      "apogee_km": 483.6615486924384,
      "perigee_km": 482.4751090669697,
      "latitude_deg": 7.813642554967521e-07,
      "longitude_deg": 7.076114326748302,
      "height_km": 482.715671945954,
      "semi_major_axis_km": 6861.205328879704,
      "eccentricity": 8.646e-05,
      "inclination_deg": 43.0065,
      "raan_deg": 24.5287,
      "arg_perigee_deg": 282.6211,
      "mean_anomaly_deg": 77.4544,
      "mean_motion_rev_day": 15.27573577
    },
    {
      "epoch": "2026-04-19T10:55:47.389440Z",
      "apogee_km": 483.24565738693764,
      "perigee_km": 483.0056504193035,
      "latitude_deg": 2.176638494296356e-05,
      "longitude_deg": 7.4816624603602015,
      "height_km": 482.89215226644006,
      "semi_major_axis_km": 6861.26265390312,
      "eccentricity": 1.749e-05,
      "inclination_deg": 43.0048,
      "raan_deg": 18.9889,
      "arg_perigee_deg": 274.5987,
      "mean_anomaly_deg": 85.4845,
      "mean_motion_rev_day": 15.27554433
    },
    {
      "epoch": "2026-04-20T10:28:08.589792Z",
      "apogee_km": 483.60227446464614,
      "perigee_km": 482.64979393023805,
      "latitude_deg": -5.728206619161644e-05,
      "longitude_deg": 7.888020220823825,
      "height_km": 482.8409917266504,
      "semi_major_axis_km": 6861.263034197442,
      "eccentricity": 6.941e-05,
      "inclination_deg": 43.0077,
      "raan_deg": 13.4504,
      "arg_perigee_deg": 277.4799,
      "mean_anomaly_deg": 82.5973,
      "mean_motion_rev_day": 15.27554306
    },
    {
      "epoch": "2026-04-21T10:00:27.903168Z",
      "apogee_km": 483.8641446543661,
      "perigee_km": 482.17822086569777,
      "latitude_deg": -4.725174826969293e-06,
      "longitude_deg": 8.30200153240057,
      "height_km": 482.7554076531166,
      "semi_major_axis_km": 6861.158182760031,
      "eccentricity": 0.00012286,
      "inclination_deg": 43.0052,
      "raan_deg": 7.9115,
      "arg_perigee_deg": 272.9183,
      "mean_anomaly_deg": 87.1528,
      "mean_motion_rev_day": 15.27589322
    },
    {
      "epoch": "2026-04-22T01:42:01.823616Z",
      "apogee_km": 483.82042359106526,
      "perigee_km": 482.30039391712853,
      "latitude_deg": 1.0571574399442465e-05,
      "longitude_deg": 128.57330236891622,
      "height_km": 482.8687887535763,
      "semi_major_axis_km": 6861.197408754097,
      "eccentricity": 0.00011077,
      "inclination_deg": 43.0044,
      "raan_deg": 4.2186,
      "arg_perigee_deg": 267.629,
      "mean_anomaly_deg": 92.4435,
      "mean_motion_rev_day": 15.27576222
    },
    {
      "epoch": "2026-04-23T01:14:23.656416Z",
      "apogee_km": 483.92489138077235,
      "perigee_km": 482.20904149284615,
      "latitude_deg": 2.9073656143466912e-05,
      "longitude_deg": 128.9773210219163,
      "height_km": 482.6145560445112,
      "semi_major_axis_km": 6861.203966436809,
      "eccentricity": 0.00012504,
      "inclination_deg": 43.0055,
      "raan_deg": 358.6803,
      "arg_perigee_deg": 285.5222,
      "mean_anomaly_deg": 74.5492,
      "mean_motion_rev_day": 15.27574032
    },
    {
      "epoch": "2026-04-24T00:46:46.169184Z",
      "apogee_km": 483.8684761363056,
      "perigee_km": 482.34335906058186,
      "latitude_deg": -1.235004039105047e-05,
      "longitude_deg": 129.37753545920722,
      "height_km": 482.52493470252364,
      "semi_major_axis_km": 6861.2429175984435,
      "eccentricity": 0.00011114,
      "inclination_deg": 43.0065,
      "raan_deg": 353.1411,
      "arg_perigee_deg": 298.0089,
      "mean_anomaly_deg": 62.065,
      "mean_motion_rev_day": 15.27561024
    },
    {
      "epoch": "2026-04-25T08:09:52.041024Z",
      "apogee_km": 483.80277202463094,
      "perigee_km": 482.4552193830741,
      "latitude_deg": 5.651706979413257e-05,
      "longitude_deg": 9.926907308625761,
      "height_km": 482.92304443797366,
      "semi_major_axis_km": 6861.265995703852,
      "eccentricity": 9.82e-05,
      "inclination_deg": 43.005,
      "raan_deg": 345.7538,
      "arg_perigee_deg": 268.5411,
      "mean_anomaly_deg": 91.5329,
      "mean_motion_rev_day": 15.27553317
    },
    {
      "epoch": "2026-04-26T15:32:59.575200Z",
      "apogee_km": 483.8504571974745,
      "perigee_km": 482.26853973278776,
      "latitude_deg": 2.6795454761433473e-05,
      "longitude_deg": -109.52617010979893,
      "height_km": 482.80955001110857,
      "semi_major_axis_km": 6861.196498465131,
      "eccentricity": 0.00011528,
      "inclination_deg": 43.0029,
      "raan_deg": 338.3711,
      "arg_perigee_deg": 271.9392,
      "mean_anomaly_deg": 88.1328,
      "mean_motion_rev_day": 15.27576526
    },
    {
      "epoch": "2026-04-27T21:21:58.407840Z",
      "apogee_km": 483.83447402422644,
      "perigee_km": 482.3387272792852,
      "latitude_deg": 1.4146909879105893e-05,
      "longitude_deg": 154.98666765711252,
      "height_km": 482.85100142316037,
      "semi_major_axis_km": 6861.223600651756,
      "eccentricity": 0.000109,
      "inclination_deg": 43.0058,
      "raan_deg": 331.3536,
      "arg_perigee_deg": 270.9719,
      "mean_anomaly_deg": 89.1008,
      "mean_motion_rev_day": 15.27567475
    },
    {
      "epoch": "2026-04-28T20:54:19.012032Z",
      "apogee_km": 483.7702201515658,
      "perigee_km": 482.3828827714606,
      "latitude_deg": 1.7749696740964866e-05,
      "longitude_deg": 155.39530670175307,
      "height_km": 482.86457110808124,
      "semi_major_axis_km": 6861.213551461513,
      "eccentricity": 0.0001011,
      "inclination_deg": 42.9989,
      "raan_deg": 325.8148,
      "arg_perigee_deg": 269.0273,
      "mean_anomaly_deg": 91.0463,
      "mean_motion_rev_day": 15.27570831
    },
    {
      "epoch": "2026-04-29T06:19:15.154176Z",
      "apogee_km": 484.1166952296471,
      "perigee_km": 482.05558379853665,
      "latitude_deg": -3.3037423084398884e-05,
      "longitude_deg": 11.55924234991399,
      "height_km": 482.8713425891005,
      "semi_major_axis_km": 6861.223139514092,
      "eccentricity": 0.0001502,
      "inclination_deg": 43.0,
      "raan_deg": 323.5994,
      "arg_perigee_deg": 269.5322,
      "mean_anomaly_deg": 90.5357,
      "mean_motion_rev_day": 15.27567629
    },
    {
      "epoch": "2026-04-30T13:42:22.980384Z",
      "apogee_km": 483.7801028043905,
      "perigee_km": 482.3310189355352,
      "latitude_deg": 6.429208121373533e-06,
      "longitude_deg": -107.89758182404181,
      "height_km": 482.7252752571317,
      "semi_major_axis_km": 6861.192560869963,
      "eccentricity": 0.0001056,
      "inclination_deg": 43.0012,
      "raan_deg": 316.2141,
      "arg_perigee_deg": 278.4791,
      "mean_anomaly_deg": 81.5941,
      "mean_motion_rev_day": 15.27577841
    },
    {
      "epoch": "2026-05-02T04:56:18.107232Z",
      "apogee_km": 483.8353597778105,
      "perigee_km": 482.3300081791449,
      "latitude_deg": -1.6481242205456006e-05,
      "longitude_deg": 12.77809638767786,
      "height_km": 482.804443364732,
      "semi_major_axis_km": 6861.219683978477,
      "eccentricity": 0.0001097,
      "inclination_deg": 43.002,
      "raan_deg": 306.9807,
      "arg_perigee_deg": 274.1841,
      "mean_anomaly_deg": 85.8885,
      "mean_motion_rev_day": 15.27568783
    },
    {
      "epoch": "2026-05-03T12:19:25.510944Z",
      "apogee_km": 483.44985014421945,
      "perigee_km": 482.68496307697023,
      "latitude_deg": 2.1656653342613704e-05,
      "longitude_deg": -106.67546722209894,
      "height_km": 482.69548181351263,
      "semi_major_axis_km": 6861.204406610595,
      "eccentricity": 5.574e-05,
      "inclination_deg": 43.0012,
      "raan_deg": 299.5969,
      "arg_perigee_deg": 292.7657,
      "mean_anomaly_deg": 67.3136,
      "mean_motion_rev_day": 15.27573885
    }
  ]
}